      2.10          N: GNSS NAV DATA                        RINEX VERSION / TYPE
fic2rin                                 01/30/2020 00:20:06 PGM / RUN BY / DATE
                                                            END OF HEADER
22 20  1 29 11 59 28.0-7.833740673959e-04-1.023181539495e-12 0.000000000000e+00
    2.000000000000e+00-8.509375000000e+01 5.506657945835e-09 7.780793510195e-01
   -4.522502422333e-06 7.031746907160e-03 6.597489118576e-06 5.153587053299e+03
    3.023680000000e+05-9.872019290924e-08-1.209395648869e-01-1.117587089539e-07
    9.299516691569e-01 2.401875000000e+02-1.235447074587e+00-8.691433461662e-09
   -1.821504444400e-10 1.000000000000e+00 2.090000000000e+03 0.000000000000e+00
    2.400000000000e+00 0.000000000000e+00-1.816079020500e-08 2.000000000000e+00
    2.997000000000e+05 4.000000000000e+00
22 20  1 29 13 59 28.0-7.833810523152e-04-1.023181539495e-12 0.000000000000e+00
    3.900000000000e+01-8.375000000000e+01 5.353437277865e-09 1.828125139836e+00
   -4.434958100319e-06 7.032129331492e-03 5.964189767838e-06 5.153589733124e+03
    3.095680000000e+05 1.303851604462e-07-1.210011522751e-01-6.332993507385e-08
    9.299513794991e-01 2.501562500000e+02-1.235253353512e+00-8.453209252953e-09
   -1.946509651369e-10 1.000000000000e+00 2.090000000000e+03 0.000000000000e+00
    2.400000000000e+00 0.000000000000e+00-1.816079020500e-08 3.900000000000e+01
    3.024000000000e+05 4.000000000000e+00
 3 20  1 29 13 59 44.0-8.260924369097e-05-8.299139153678e-12 0.000000000000e+00
    1.100000000000e+01-8.231250000000e+01 4.579119310128e-09-5.497296343544e-01
   -4.248693585396e-06 2.607523230836e-03 7.214024662971e-06 5.153628313065e+03
    3.095840000000e+05-2.793967723846e-08-3.893148021242e-02 2.607703208923e-08
    9.651447090311e-01 2.463437500000e+02 7.501763025741e-01-8.151410967557e-09
   -1.764359206929e-10 1.000000000000e+00 2.090000000000e+03 0.000000000000e+00
    2.400000000000e+00 0.000000000000e+00 1.862645149231e-09 1.100000000000e+01
    3.024000000000e+05 4.000000000000e+00
 2 20  1 29 13 59 44.0-3.949683159590e-04-7.048583938740e-12 0.000000000000e+00
    5.300000000000e+01 3.200000000000e+01 4.938777148463e-09 8.738678284913e-01
    1.521781086922e-06 1.976770302281e-02 4.539266228676e-06 5.153620456696e+03
    3.095840000000e+05-2.887099981308e-07-1.154015168975e+00-1.210719347000e-07
    9.575432067523e-01 2.917812500000e+02-1.668045822015e+00-8.777865633337e-09
    1.957224383395e-10 1.000000000000e+00 2.090000000000e+03 0.000000000000e+00
    2.400000000000e+00 0.000000000000e+00-1.769512891769e-08 5.300000000000e+01
    3.024000000000e+05 4.000000000000e+00
20 20  1 29 13 59 44.0 5.278405733407e-04 0.000000000000e+00 0.000000000000e+00
    1.600000000000e+01-7.700000000000e+01 5.362723378954e-09 9.359176846140e-02
   -4.054978489876e-06 5.071813124232e-03 5.444511771202e-06 5.153624452591e+03
    3.095840000000e+05 6.146728992462e-08-1.688431392345e-01-3.725290298462e-08
    9.332340652647e-01 2.599375000000e+02 2.577373567600e+00-8.634288224190e-09
   -1.489347751598e-10 1.000000000000e+00 2.090000000000e+03 0.000000000000e+00
    2.400000000000e+00 0.000000000000e+00-8.847564458847e-09 1.600000000000e+01
    3.024000000000e+05 4.000000000000e+00
 1 20  1 29 14  0  0.0-2.779387868941e-04-1.216449163621e-11 0.000000000000e+00
    1.440000000000e+02 2.309375000000e+01 4.376253717105e-09 5.962402488282e-01
    1.123175024986e-06 9.323091828264e-03 3.755092620850e-06 5.153636032104e+03
    3.096000000000e+05-5.401670932770e-08-1.080153416771e+00 1.396983861923e-07
    9.785248708486e-01 3.175312500000e+02 7.561041841456e-01-8.307846055135e-09
    1.300054152474e-10 1.000000000000e+00 2.090000000000e+03 0.000000000000e+00
    2.400000000000e+00 0.000000000000e+00 5.587935447693e-09 1.440000000000e+02
    3.024000000000e+05 4.000000000000e+00
 5 20  1 29 14  0  0.0-6.791204214096e-06-5.684341886081e-13 0.000000000000e+00
    2.900000000000e+01-8.568750000000e+01 4.897704009031e-09-2.801863437819e+00
   -4.583969712257e-06 5.765462876298e-03 6.727874279022e-06 5.153590984344e+03
    3.096000000000e+05 4.284083843231e-08-6.917027486531e-02-9.313225746155e-08
    9.520266567830e-01 2.458437500000e+02 7.990435595773e-01-8.238200296967e-09
   -1.846505485794e-10 1.000000000000e+00 2.090000000000e+03 0.000000000000e+00
    2.400000000000e+00 0.000000000000e+00-1.117587089539e-08 2.900000000000e+01
    3.024000000000e+05 4.000000000000e+00
12 20  1 29 14  0  0.0 1.570847816765e-04-4.092726157978e-12 0.000000000000e+00
    8.000000000000e+00-1.865625000000e+01 4.204818004690e-09-7.513143387322e-01
   -9.462237358093e-07 7.887634797953e-03 8.171424269676e-06 5.153754131317e+03
    3.096000000000e+05 5.587935447693e-09-3.111868883635e+00 1.415610313416e-07
    9.801028386573e-01 2.322500000000e+02 1.100520340747e+00-7.991761460372e-09
   -4.618049503155e-10 1.000000000000e+00 2.090000000000e+03 0.000000000000e+00
    2.400000000000e+00 0.000000000000e+00-1.257285475731e-08 8.000000000000e+00
    3.024000000000e+05 4.000000000000e+00
10 20  1 29 14  0  0.0-2.266271039844e-04-1.330136001343e-11 0.000000000000e+00
    2.200000000000e+01-8.356250000000e+01 4.509473551960e-09-1.455258917535e+00
   -4.397705197334e-06 5.361048621126e-03 6.480142474174e-06 5.153666221619e+03
    3.096000000000e+05 8.195638656616e-08-4.203364334996e-02-6.891787052155e-08
    9.651181365871e-01 2.545937500000e+02-2.688987288668e+00-8.077836474313e-09
   -1.035757429169e-10 1.000000000000e+00 2.090000000000e+03 0.000000000000e+00
    2.400000000000e+00 0.000000000000e+00 1.862645149231e-09 2.200000000000e+01
    3.024000000000e+05 4.000000000000e+00
 6 20  1 29 14  0  0.0-1.949649304152e-04-9.777068044059e-12 0.000000000000e+00
    2.600000000000e+01 2.112500000000e+01 4.336966366343e-09 8.804207476638e-01
    1.167878508568e-06 1.852649031207e-03 3.889203071594e-06 5.153739545822e+03
    3.096000000000e+05-7.450580596924e-09-1.088414442019e+00-6.519258022308e-08
    9.781136548169e-01 3.105625000000e+02-1.158071772052e+00-8.226414091738e-09
    2.632252501025e-10 1.000000000000e+00 2.090000000000e+03 0.000000000000e+00
    2.400000000000e+00 0.000000000000e+00 4.656612873077e-09 2.600000000000e+01
    3.024000000000e+05 4.000000000000e+00
 7 20  1 29 14  0  0.0-2.027410082519e-04-8.412825991400e-12 0.000000000000e+00
    5.700000000000e+01 2.837500000000e+01 5.141285583753e-09-1.278719650092e-01
    1.518055796623e-06 1.328249357175e-02 5.161389708519e-06 5.153694171906e+03
    3.096000000000e+05 3.725290298462e-08 2.067161423331e+00 1.564621925354e-07
    9.534817306956e-01 2.743437500000e+02-2.418768637137e+00-8.633573908722e-09
    1.178620522847e-11 1.000000000000e+00 2.090000000000e+03 0.000000000000e+00
    2.400000000000e+00 0.000000000000e+00-1.117587089539e-08 5.700000000000e+01
    3.024000000000e+05 4.000000000000e+00
 4 20  1 29 14  0  0.0-4.128506407142e-05-5.456968210638e-12 0.000000000000e+00
    1.280000000000e+02 1.053125000000e+01 4.579833625596e-09 1.886249239201e+00
    5.867332220078e-07 5.029186140746e-04 1.052021980286e-05 5.153728246689e+03
    3.096000000000e+05-1.676380634308e-08 1.039055217369e+00 3.166496753693e-08
    9.598384579245e-01 1.786875000000e+02-2.745746375746e+00-7.973189258193e-09
    2.582250418238e-10 1.000000000000e+00 2.090000000000e+03 0.000000000000e+00
    2.400000000000e+00 0.000000000000e+00-4.190951585770e-09 3.840000000000e+02
    3.024000000000e+05 4.000000000000e+00
 9 20  1 29 14  0  0.0-1.435587182641e-04-8.640199666843e-12 0.000000000000e+00
    6.600000000000e+01 4.437500000000e+00 4.708053252173e-09-3.083476097031e+00
    3.371387720108e-07 1.779139856808e-03 1.067295670509e-05 5.153802188873e+03
    3.096000000000e+05 5.774199962616e-08 9.920725675074e-01 2.607703208923e-08
    9.525625763405e-01 1.706562500000e+02 1.765537852961e+00-8.021762710044e-09
    2.339383158984e-10 1.000000000000e+00 2.090000000000e+03 0.000000000000e+00
    2.400000000000e+00 0.000000000000e+00 1.396983861923e-09 6.600000000000e+01
    3.024000000000e+05 4.000000000000e+00
 8 20  1 29 14  0  0.0-2.191402018070e-05-1.364242052659e-12 0.000000000000e+00
    4.000000000000e+01 5.603125000000e+01 4.030167872669e-09 2.974682156412e+00
    2.965331077576e-06 5.109755904414e-03 9.393319487572e-06 5.153624990463e+03
    3.096000000000e+05-3.911554813385e-08-2.149328647160e+00 2.235174179077e-08
    9.700548209399e-01 2.033437500000e+02-1.951392072798e-01-7.806396596324e-09
    1.160762636137e-10 1.000000000000e+00 2.090000000000e+03 0.000000000000e+00
    2.400000000000e+00 0.000000000000e+00 5.122274160385e-09 4.000000000000e+01
    3.024000000000e+05 4.000000000000e+00
25 20  1 29 14  0  0.0-1.483969390392e-05 1.023181539495e-12 0.000000000000e+00
    4.000000000000e+00-2.131250000000e+01 4.471614832135e-09-1.077379434435e+00
   -1.121312379837e-06 9.001854225062e-03 7.500872015953e-06 5.153596382141e+03
    3.096000000000e+05 1.993030309677e-07 3.103930973104e+00 1.844018697739e-07
    9.674270075266e-01 2.375625000000e+02 8.918955771793e-01-8.085693944465e-09
   -4.960920927984e-10 1.000000000000e+00 2.090000000000e+03 0.000000000000e+00
    2.400000000000e+00 0.000000000000e+00 5.587935447693e-09 4.000000000000e+00
    3.024000000000e+05 4.000000000000e+00
17 20  1 29 14  0  0.0 2.070129849017e-04 6.480149750132e-12 0.000000000000e+00
    9.000000000000e+00 6.703125000000e+01 3.578006181176e-09 2.676680278203e+00
    3.442168235779e-06 1.342485030182e-02 9.814277291298e-06 5.153648021698e+03
    3.096000000000e+05 1.266598701477e-07-2.078340693655e+00-5.774199962616e-08
    9.841492422691e-01 1.975000000000e+02-1.657204365808e+00-7.422094874329e-09
    1.260766801712e-10 1.000000000000e+00 2.090000000000e+03 0.000000000000e+00
    2.400000000000e+00 0.000000000000e+00-1.117587089539e-08 9.000000000000e+00
    3.024000000000e+05 4.000000000000e+00
